{
"type": "FeatureCollection",
"name": "fcs_regions",
"crs": { "type": "name", "properties": { "name": "urn:ogc:def:crs:OGC:1.3:CRS84" } },
"features": [
{ "type": "Feature", "properties": { "id": "FCS_1" }, "geometry": { "type": "Polygon", "coordinates": [ [ [ 104.121588288996008, 30.675319520743603 ], [ 104.042610041671651, 30.681633382131132 ], [ 104.020002893293423, 30.7291 ], [ 104.1614, 30.7291 ], [ 104.1614, 30.701112198807568 ], [ 104.121588288996008, 30.675319520743603 ] ] ] } },
{ "type": "Feature", "properties": { "id": "FCS_2" }, "geometry": { "type": "Polygon", "coordinates": [ [ [ 104.0941804568387, 30.625273655717649 ], [ 104.121588288996008, 30.675319520743603 ], [ 104.1614, 30.701112198807568 ], [ 104.1614, 30.5963 ], [ 104.093767403800385, 30.5963 ], [ 104.0941804568387, 30.625273655717649 ] ] ] } },
{ "type": "Feature", "properties": { "id": "FCS_3" }, "geometry": { "type": "Polygon", "coordinates": [ [ [ 104.029898827271296, 30.64564735462163 ], [ 104.0941804568387, 30.625273655717649 ], [ 104.093767403800385, 30.5963 ], [ 103.9808, 30.5963 ], [ 103.9808, 30.598438060809467 ], [ 104.029898827271296, 30.64564735462163 ] ] ] } },
{ "type": "Feature", "properties": { "id": "FCS_4" }, "geometry": { "type": "Polygon", "coordinates": [ [ [ 104.029898827271296, 30.64564735462163 ], [ 104.042610041671651, 30.681633382131132 ], [ 104.121588288996008, 30.675319520743603 ], [ 104.0941804568387, 30.625273655717649 ], [ 104.029898827271296, 30.64564735462163 ] ] ] } },
{ "type": "Feature", "properties": { "id": "FCS_5" }, "geometry": { "type": "Polygon", "coordinates": [ [ [ 104.042610041671651, 30.681633382131132 ], [ 104.029898827271296, 30.64564735462163 ], [ 103.9808, 30.598438060809467 ], [ 103.9808, 30.7291 ], [ 104.020002893293423, 30.7291 ], [ 104.042610041671651, 30.681633382131132 ] ] ] } }
]
}
